#aV2015  8  2  0  0  0.00000000     288 DD+AD WGS84 FIT  NGA
## 1856      0.00000000   300.00000000 57236 0.0000000000000
+   31     1  2  3  4  5  6  7  9 10 11 12 13 14 15 16 17 18
+         19 20 21 22 23 24 25 26 27 28 29 30 31 32  0  0  0
+          0  0  0  0  0  0  0  0  0  0  0  0  0  0  0  0  0
+          0  0  0  0  0  0  0  0  0  0  0  0  0  0  0  0  0
+          0  0  0  0  0  0  0  0  0  0  0  0  0  0  0  0  0
++         2  2  2  2  2  2  2  2  2  2  2  2  2  2  2  2  2
++         2  2  2  2  2  2  2  2  2  2  2  2  2  2  0  0  0
++         0  0  0  0  0  0  0  0  0  0  0  0  0  0  0  0  0
++         0  0  0  0  0  0  0  0  0  0  0  0  0  0  0  0  0
++         0  0  0  0  0  0  0  0  0  0  0  0  0  0  0  0  0
%c cc cc ccc ccc cccc cccc cccc cccc ccccc ccccc ccccc ccccc
%c cc cc ccc ccc cccc cccc cccc cccc ccccc ccccc ccccc ccccc
%f  0.0000000  0.000000000  0.00000000000  0.000000000000000
%f  0.0000000  0.000000000  0.00000000000  0.000000000000000
%i    0    0    0    0      0      0      0      0         0
%i    0    0    0    0      0      0      0      0         0
/*      NGA, ST. LOUIS,MO.                                  
/*   EPHEMERIS COMPUTED FROM  1 DAYS OF DATA                
/*   EPOCHA SMOOTHER                                       
/* CCCCCCCCCCCCCCCCCCCCCCCCCCCCCCCCCCCCCCCCCCCCCCCCCCCCCCCCC
*  2015  8  2  8 25  0.00000000
P  1 -20355.822003  -9698.128492  14132.464805     -1.927993                    
V  1  -9684.749491 -15261.675290 -24122.024347      0.006200                    
P  2  13472.070986  22419.908045   6188.599401    581.801219                    
V  2  -6940.962354  -3650.505106  29744.537098      0.021176                    
P  3 -16033.217582    312.197997  21191.100480     13.017876                    
V  3   9006.816426 -25329.975638   7162.811261      0.030615                    
P  4 -19699.355953 -16981.732001   5697.914723     -6.462136                    
V  4  -2488.616640  -7873.934836 -30016.814356     -0.033844                    
P  5   5582.526195  19728.442792 -16831.395132   -211.126026                    
V  5  -9495.559462  19290.141299  19707.927764      0.042589                    
P  6   2751.545484  21015.440715  16011.832362     29.291564                    
V  6 -14282.747140 -14581.158136  21581.640934      0.079530                    
P  7 -15043.347509   4475.090327 -21368.101791    477.786764                    
V  7 -16385.223252 -21850.041602   6545.320370      0.020352                    
P  9 -24811.510981   7880.639673  -5328.343160     -9.950701                    
V  9  -7132.458335  -1716.049068  30679.255476     -0.013011                    
P 10  -8349.787291  24930.786470  -1761.979026   -184.965084                    
V 10  -4183.817286    302.258791  31481.743892     -0.015767                    
P 11 -24176.443185  -9357.982777   5492.251629   -595.252892                    
V 11  -4183.675231  -7995.585844 -29053.282089     -0.023898                    
P 12  14311.667138   3331.574052  22003.905986    315.271598                    
V 12 -11014.193264  25889.312309   3433.479684      0.033743                    
P 13  12595.767009  12805.790089 -19660.013292   -137.471851                    
V 13 -24597.167110   2267.354464 -14493.883902     -0.032984                    
P 14  12492.004727 -14127.540924  18889.188803     44.652189                    
V 14  23542.172047   -539.440397 -16341.421957     -0.026607                    
P 15  22550.555442   5362.127406 -13344.030875   -263.821012                    
V 15 -15832.694520   6050.035686 -24169.847109     -0.020857                    
P 16  -3397.806747 -19758.666616 -17304.741568   -101.954109                    
V 16  10398.310617 -19318.246522  20466.778224      0.041787                    
P 17 -10703.396736  14657.747198  19613.916379   -182.557857                    
V 17 -24278.004180   1594.305267 -14869.460627     -0.014608                    
P 18  15257.014937 -18315.068729 -10899.454270    422.162361                    
V 18  -1452.187748  15170.178441 -26600.776946      0.030985                    
P 19 -21060.458729  -8505.358411 -14351.407611   -517.368546                    
V 19  17531.031645  -2667.750796 -24048.618876     -0.009153                    
P 20  15680.306889   3467.114049 -21305.049550    343.535999                    
V 20  -7569.140047  25761.860593  -1301.769685      0.032100                    
P 21  13403.621797  -7954.857592 -20826.196281   -468.710269                    
V 21  17972.640145  21700.576730   2835.794109     -0.030641                    
P 22   8699.160510 -24993.079754    307.815243    377.196338                    
V 22   3965.665622   1295.272808 -30997.010722      0.038985                    
P 23 -25968.753641   -825.914998   6702.280221   -124.704684                    
V 23   7700.583841  -3921.735930  29645.896677     -0.023124                    
P 24  20786.705036  11716.207209  11787.527056     -2.328508                    
V 24   7747.914613  13060.069812 -26416.680095     -0.006468                    
P 25  16688.809499 -10847.713517  17400.540532    -20.347941                    
V 25  -6567.040200  21383.432752  19671.130285     -0.046678                    
P 26   3190.460351 -25002.094652  -8376.610946    -18.835905                    
V 26   6208.768307  -9014.775432  29303.622864     -0.071590                    
P 27 -10510.511865 -12803.983745 -20812.961557      8.816959                    
V 27  25857.019378  -4968.798275  -9895.844142      0.028482                    
P 28 -12549.858269  23158.449318  -2399.074964    457.760789                    
V 28   -227.135869  -4311.277491 -32237.902781      0.025386                    
P 29  25837.370457  -5008.133717  -3389.073112    625.838844                    
V 29   4547.527353   1952.466908  31686.726736      0.021127                    
P 30  -7178.020653  15146.400433 -20592.600653     -1.821019                    
V 30 -15760.697204 -20913.871198  -9969.280870      0.073749                    
P 31  -3448.580693 -21496.366248  15103.536452    307.794543                    
V 31  13036.784010  14030.295580  23469.689760     -0.012507                    
P 32  -9408.476485 -14336.515034  20377.812813    -83.633444                    
V 32  11900.274539 -22978.490664 -10119.448840      0.103482                    
EOF
